[{"OBJECT_NAME":"STARLINK-3696","OBJECT_ID":"2022-025K","EPOCH":"2026-03-10T00:00:02.999808","MEAN_MOTION":15.09748411,"ECCENTRICITY":0.00012461,"INCLINATION":53.0656,"RA_OF_ASC_NODE":34.4217,"ARG_OF_PERICENTER":91.4516,"MEAN_ANOMALY":315.6909,"EPHEMERIS_TYPE":0,"CLASSIFICATION_TYPE":"U","NORAD_CAT_ID":51965,"ELEMENT_SET_NO":999,"REV_AT_EPOCH":579,"BSTAR":0.0013311112,"MEAN_MOTION_DOT":0.00021497,"MEAN_MOTION_DDOT":0},{"OBJECT_NAME":"DELTA 1 DEB","OBJECT_ID":"1978-026BX","EPOCH":"2026-03-09T21:34:36.806304","MEAN_MOTION":15.0275865,"ECCENTRICITY":0.00371244,"INCLINATION":98.0194,"RA_OF_ASC_NODE":65.5332,"ARG_OF_PERICENTER":51.7385,"MEAN_ANOMALY":308.7169,"EPHEMERIS_TYPE":0,"CLASSIFICATION_TYPE":"U","NORAD_CAT_ID":12230,"ELEMENT_SET_NO":999,"REV_AT_EPOCH":36609,"BSTAR":0.0014350783,"MEAN_MOTION_DOT":0.00019449,"MEAN_MOTION_DDOT":0}]
